format  = 'OEF2.0'       ! file format
rectype = 'ML'           ! record type (1L/ML)
refsys  = ECLM J2000     ! default reference system
END_OF_HEADER
2060
! Equinoctial elements: a, e*sin(LP), e*cos(LP), tan(i/2)*sin(LN), tan(i/2)*cos(LN), mean long.
 EQU   1.3637390944484094E+01  -0.057380397966286  -0.377940176857144   -0.029643875901696   -0.052892559518290 324.6423245624553
 MJD     57077.003506845 TDT
 MAG   5.679  0.150
! Non-grav parameters: model used, actual number in use, dimension
 LSP   0  0    6
! RMS    1.21430E-06   9.15529E-08   6.32797E-08   2.22126E-08   5.92373E-08   1.13421E-05
! EIG   2.14361E-08   2.74195E-08   3.97693E-08   5.95707E-08   8.03825E-08   1.23179E-06
! WEA   0.98577  -0.07083   0.00413  -0.00008   0.00031  -0.15237
 COV   1.474532882159619E-12 -1.058944916569658E-13  6.525187593521992E-15
 COV  -1.267908158279760E-16  4.902166968440465E-16 -1.302391960665622E-11
 COV   8.381931761823929E-15 -6.116721569669973E-16  3.095664924072567E-17
 COV  -1.361398813471574E-16  9.366853931688225E-13  4.004322892425229E-15
 COV   1.811978562668887E-18 -1.323951269017530E-18  8.344078467922040E-14
 COV   4.934004288844360E-16 -3.159544264028752E-16 -1.914546584058858E-15
 COV   3.509053764714050E-15  7.912648669548941E-15  1.286437012649317E-10
 NOR   1.557861226237421E+13  8.443860471516197E+13 -3.299007581663945E+13
 NOR   2.037284056291750E+12 -9.479177107127911E+11  9.838515497881964E+11
 NOR   1.310362491010608E+15  8.448068029184545E+13 -4.071053914088917E+13
 NOR   3.777611765850566E+13 -1.050201369158290E+12  4.043135377720378E+14
 NOR  -2.164071850690980E+13  1.560289139763489E+13 -4.218574561841869E+12
 NOR   2.154226451462978E+15  1.908828914162523E+14  5.370343562679311E+11
 NOR   3.046633673241368E+14 -3.970431406983030E+11  1.177942070582519E+11
